[{"OBJECT_NAME":"STARLINK-35819","OBJECT_ID":"2025-247W","EPOCH":"2026-03-09T15:01:51.234816","MEAN_MOTION":15.30204109,"ECCENTRICITY":0.0001161,"INCLINATION":53.1577,"RA_OF_ASC_NODE":191.7561,"ARG_OF_PERICENTER":55.208,"MEAN_ANOMALY":304.903,"EPHEMERIS_TYPE":0,"CLASSIFICATION_TYPE":"U","NORAD_CAT_ID":66285,"ELEMENT_SET_NO":999,"REV_AT_EPOCH":2102,"BSTAR":0.0006358,"MEAN_MOTION_DOT":0.00018521,"MEAN_MOTION_DDOT":0},{"OBJECT_NAME":"THOR AGENA B DEB","OBJECT_ID":"1965-098G","EPOCH":"2026-03-09T23:22:06.853152","MEAN_MOTION":13.57256453,"ECCENTRICITY":0.07679635,"INCLINATION":79.6109,"RA_OF_ASC_NODE":51.0692,"ARG_OF_PERICENTER":143.4347,"MEAN_ANOMALY":222.1845,"EPHEMERIS_TYPE":0,"CLASSIFICATION_TYPE":"U","NORAD_CAT_ID":1951,"ELEMENT_SET_NO":999,"REV_AT_EPOCH":79416,"BSTAR":0.00077607754,"MEAN_MOTION_DOT":4.232e-5,"MEAN_MOTION_DDOT":0}]
